# From MPC 79342
C/2011 Q4 (SWAN),e,147.9632,251.9779,1.9174,41.35684,0.0037058,0.97277182,0.0000,09/18.4405/2011,2000,g 12.5,4.0
# From MPC 88325
C/2011 R1 (McNaught),e,116.1600,221.3014,308.8823,11371,0.0000008,0.99981619,0.0000,10/17.7179/2012,2000,g  6.5,4.0
# From MPC 90269
P/2011 R3 (Novichonok-Gerke),e,19.2416,190.3308,223.8547,4.801396,0.0936813,0.26672493,208.9332,05/05.0/2018,2000,g 11.0,4.0
# From MPC 98558
P/2011 S1 (Gibbs),e,2.6828,218.9506,193.1591,8.608984,0.0390190,0.19976838,52.7982,05/05.0/2018,2000,g  8.0,4.0
# From MPC 80897
C/2011 S2 (Kowalski),e,17.5223,288.0792,192.3487,16.42436,0.0148072,0.93142683,35.3120,05/05.0/2018,2000,g 15.5,4.0
# From MPC 78186
P/2011 U1 (PANSTARRS),e,15.2322,134.9723,353.3515,4.055427,0.1206839,0.41669572,258.9291,05/05.0/2018,2000,g 14.5,4.0
# From MPC105540
P/2011 U2 (Bressi),e,9.8972,264.0796,139.3083,5.116298,0.0851668,0.10013913,201.8550,05/05.0/2018,2000,g 10.0,4.0
# From MPC 78186
C/2011 U3 (PANSTARRS),e,116.7052,228.1456,287.7604,2051,0.0000106,0.99947470,0.0000,06/01.8878/2012,2000,g 14.0,4.0
# From MPC 79022
P/2011 UA134 (Spacewatch-PANSTARRS),e,10.4742,40.5722,32.5635,5.596832,0.0744373,0.62954708,174.7307,05/05.0/2018,2000,g 17.5,4.0
# From MPC 88325
C/2011 UF305 (LINEAR),e,94.0425,297.6377,122.0260,3442,0.0000049,0.99937732,0.0000,07/21.2174/2012,2000,g  9.0,4.0
# From MPC 77406
P/2011 V1 (Boattini),e,7.3804,46.8698,269.1525,3.852514,0.1303430,0.55050929,340.4639,05/05.0/2018,2000,g 15.5,4.0
# From MPC 82718
P/2011 W1 (PANSTARRS),e,3.7178,161.7963,282.7669,4.658956,0.0980102,0.28613928,225.1296,05/05.0/2018,2000,g 11.5,4.0
# From MPC 80897
P/2011 W2 (Rinner),e,13.7583,231.9597,221.2389,3.807813,0.1326449,0.39253606,314.9476,05/05.0/2018,2000,g 13.0,4.0
# From MPC 77807
C/2011 W3 (Lovejoy),e,135.9399,329.3522,55.8010,71.17972,0.0016412,0.99990792,0.0000,12/14.9026/2011,2000,g 14.5,4.0
# From MPC109140
P/2011 WG113 (PANSTARRS),e,9.8365,87.4392,66.4078,3.185884,0.1733242,0.57339031,14.4263,05/05.0/2018,2000,g 17.0,4.0
# From MPC 79342
P/2011 Y2 (Boattini),e,6.3693,309.3961,132.0468,6.239748,0.0632344,0.70968875,141.7164,05/05.0/2018,2000,g 15.0,4.0
# From MPC 79342
C/2011 Y3 (Boattini),e,26.5067,84.8885,340.5560,11.75865,0.0244437,0.70161635,59.9477,05/05.0/2018,2000,g  8.0,4.0
# From MPC 93583
C/2012 A1 (PANSTARRS),h,12/04.0822/2013,120.9340,278.0465,192.0699,1.002177,7.601460,2000,6.0,4.0
# From MPC 91611
C/2012 A2 (LINEAR),e,125.8865,191.4070,101.6400,1256,0.0000221,0.99719010,0.0000,11/06.6104/2012,2000,g  8.5,4.0
# From MPC 80898
P/2012 A3 (SOHO),e,11.1510,175.4521,218.9880,2.583278,0.2373817,0.77271345,186.4762,05/05.0/2018,2000,g 17.0,4.0
# From MPC 94669
P/2012 B1 (PANSTARRS),e,7.6231,36.1543,162.5275,6.517823,0.0592312,0.41171219,103.3790,05/05.0/2018,2000,g  9.0,4.0
# From MPC 82719
C/2012 B3 (La Sagra),e,107.0763,252.9678,50.8243,15492,0.0000005,0.99977110,0.0000,12/06.6436/2011,2000,g 10.0,4.0
# From MPC 83519
C/2012 BJ98 (Lemmon),e,2.6346,123.9854,73.1502,17.27331,0.0137291,0.87475781,28.1713,05/05.0/2018,2000,g 12.5,4.0
# From MPC 89309
C/2012 C1 (McNaught),e,96.1942,300.6059,279.8624,2274,0.0000091,0.99787410,0.0000,02/04.5810/2013,2000,g  7.5,4.0
# From MPC 80898
C/2012 C2 (Bruenjes),h,03/12.7316/2012,162.7416,117.8654,62.3753,1.002676,0.792704,2000,17.0,4.0
# From MPC 78590
P/2012 C3 (PANSTARRS),e,9.0920,135.3677,344.9542,9.748681,0.0323806,0.63011148,359.9758,10/06.0/2011,2000,g 13.0,4.0
# From MPC 84022
C/2012 CH17 (MOSS),e,27.7690,125.7514,138.0304,3768,0.0000043,0.99965854,0.0000,09/29.7590/2012,2000,g 11.0,4.0
# From MPC 84022
C/2012 E1 (Hill),e,122.6081,286.2566,48.8423,1124,0.0000261,0.99331610,0.0000,07/01.1879/2011,2000,g  6.5,4.0
# From MPC 82318
C/2012 E3 (PANSTARRS),e,105.5953,5.5279,103.5708,204.5948,0.0003368,0.98121386,0.0000,05/09.2821/2011,2000,g 10.0,4.0
# From MPC 79868
C/2012 F1 (Gibbs),e,159.5691,130.4479,301.0656,73.18275,0.0015743,0.96492333,3.5700,05/05.0/2018,2000,g 14.0,4.0
# From MPC 84931
P/2012 F2 (PANSTARRS),e,14.7441,227.0894,33.1112,6.323428,0.0619834,0.54321496,114.6328,05/05.0/2018,2000,g 12.0,4.0
# From MPC107683
C/2012 F3 (PANSTARRS),h,04/07.2013/2015,11.3493,164.5998,104.0785,1.003495,3.457815,2000,6.5,4.0
# From MPC 90766
C/2012 F6 (Lemmon),e,82.6442,332.5328,304.8211,403.9575,0.0001214,0.99820830,0.0000,03/24.8729/2013,2000,g 10.0,4.0
# From MPC 79344
P/2012 G1 (PANSTARRS),e,11.6925,282.5440,286.1149,4.172871,0.1156250,0.38072240,359.9500,06/01.0/2012,2000,g 15.0,4.0
# From MPC 80046
C/2012 H2 (McNaught),e,92.7979,184.1146,296.0451,16.11102,0.0152412,0.89256101,33.4488,05/05.0/2018,2000,g 15.5,4.0
# From MPC109140
C/2012 J1 (Catalina),h,12/06.0941/2012,34.0941,235.1576,147.2397,1.000766,3.153770,2000,8.0,4.0
# From MPC103843
C/2012 K1 (PANSTARRS),h,08/28.1618/2014,142.3453,317.7772,203.1011,1.000495,1.051593,2000,5.6,3.2
# From MPC 80898
P/2012 K3 (Gibbs),e,13.1922,125.8597,172.2061,3.622971,0.1429245,0.42386934,292.8586,05/05.0/2018,2000,g 15.0,4.0
# From MPC103843
C/2012 K5 (LINEAR),e,92.7809,279.3249,139.3247,659.5794,0.0000582,0.99826705,0.0000,11/28.4016/2012,2000,g 12.0,4.0
# From MPC 94278
C/2012 K6 (McNaught),e,135.2195,206.9130,338.9879,1725,0.0000138,0.99804766,0.0000,05/20.6053/2013,2000,g  8.5,4.0
# From MPC100577
C/2012 K8 (Lemmon),e,106.1442,312.7799,75.9042,7564,0.0000015,0.99914494,0.0000,08/19.3923/2014,2000,g  6.0,4.0
# From MPC 88326
C/2012 L1 (LINEAR),e,87.2332,271.9450,140.1768,576.6601,0.0000712,0.99608122,0.0000,12/24.8908/2012,2000,g 10.5,4.0
# From MPC 88326
C/2012 L2 (LINEAR),e,70.8409,270.3507,205.8723,549.5720,0.0000765,0.99724141,0.0000,05/07.8755/2013,2000,g 10.0,4.0
# From MPC 84023
C/2012 L3 (LINEAR),e,134.1245,53.4092,106.9327,283.0037,0.0002070,0.98923323,0.0000,06/09.4950/2012,2000,g 13.0,4.0
# From MPC108592
C/2012 LP26 (Palomar),h,08/16.9765/2015,25.3665,153.9793,145.1651,1.001528,6.535809,2000,6.5,4.0
# From MPC 88326
P/2012 NJ (La Sagra),e,84.4953,315.6628,338.2671,8.452237,0.0401094,0.84773171,86.3532,05/05.0/2018,2000,g 14.5,4.0
# From MPC 84625
C/2012 OP (Siding Spring),e,114.8493,267.2455,351.3536,698.1001,0.0000534,0.99482552,0.0000,12/03.2005/2012,2000,g 13.5,2.0
# From MPC 81470
P/2012 O1 (McNaught),e,7.4309,92.0051,238.1679,3.540361,0.1479560,0.59475068,315.4323,05/05.0/2018,2000,g 17.5,4.0
# From MPC 80899
P/2012 O2 (McNaught),e,24.4836,120.7116,183.3708,3.620424,0.1430754,0.53294648,307.6182,05/05.0/2018,2000,g 17.0,4.0
# From MPC 82720
P/2012 O3 (McNaught),e,16.5886,336.3985,344.6452,4.579294,0.1005788,0.64589097,210.4532,05/05.0/2018,2000,g 16.5,4.0
# From MPC 90767
C/2012 Q1 (Kowalski),e,45.2172,184.4175,138.9754,26.02894,0.0074220,0.63639345,16.9329,05/05.0/2018,2000,g  4.0,4.0
# From MPC 89726
C/2012 S1 (ISON),h,11/28.5324/2013,63.8294,295.1401,345.8253,1.000255,0.012539,2000,8.5,3.2
# From MPC 82720
P/2012 S2 (La Sagra),e,8.6890,51.1878,312.6070,4.404410,0.1066283,0.69103444,223.8536,05/05.0/2018,2000,g 17.0,4.0
# From MPC 88327
C/2012 S3 (PANSTARRS),e,113.0036,121.2133,183.6500,3384,0.0000050,0.99931763,0.0000,08/30.0055/2013,2000,g 10.0,4.0
# From MPC 88327
C/2012 S4 (PANSTARRS),e,126.5598,173.0836,163.4194,3985,0.0000039,0.99891138,0.0000,06/26.8512/2013,2000,g  8.5,4.0
# From MPC 82720
P/2012 SB6 (Lemmon),e,10.9572,8.6346,13.2953,3.845340,0.1307079,0.40411008,258.6665,05/05.0/2018,2000,g 14.0,4.0
# From MPC 82320
P/2012 T2 (PANSTARRS),e,12.5539,73.7406,310.8142,5.745074,0.0715749,0.15964195,131.6178,05/05.0/2018,2000,g 10.0,4.0
# From MPC 80900
P/2012 T3 (PANSTARRS),e,9.5582,114.3970,195.4091,6.157381,0.0645075,0.61589017,141.9593,05/05.0/2018,2000,g 15.0,4.0
# From MPC 84023
C/2012 T4 (McNaught),e,24.1670,99.4121,219.7415,118.8765,0.0007604,0.98364190,0.0000,10/11.3853/2012,2000,g 13.5,4.0
# From MPC 84023
C/2012 T5 (Bressi),h,02/24.1684/2013,72.2860,230.2097,318.2981,1.000430,0.325966,2000,13.0,4.0
# From MPC 82720
C/2012 T6 (Kowalski),e,33.3443,186.1177,197.9179,14.04696,0.0187211,0.87394056,38.9564,05/05.0/2018,2000,g 15.0,4.0
# From MPC 87914
P/2012 TK8 (Tenagra),e,6.3090,289.0475,126.7909,4.153501,0.1164347,0.27053610,212.1855,05/05.0/2018,2000,g 13.0,4.0
# From MPC 95208
C/2012 U1 (PANSTARRS),e,56.3519,26.9640,70.2116,1562,0.0000160,0.99662374,0.0000,07/04.3943/2014,2000,g  7.5,4.0
# From MPC 82720
P/2012 U2 (PANSTARRS),e,10.7363,185.2352,228.5670,7.154402,0.0515044,0.49717304,103.1073,05/05.0/2018,2000,g 12.5,4.0
# From MPC 84024
P/2012 US27 (Siding Spring),e,39.3479,49.1691,0.9986,5.164244,0.0839835,0.64755216,161.0370,05/05.0/2018,2000,g 13.5,4.0
# From MPC 84932
C/2012 V1 (PANSTARRS),e,157.8311,85.2973,123.1445,1141,0.0000256,0.99816776,0.0000,07/19.4929/2013,2000,g 12.0,4.0
# From MPC 88695
C/2012 V2 (LINEAR),e,67.1627,262.1678,217.4740,555.0408,0.0000754,0.99735647,0.0000,08/13.9983/2013,2000,g  9.0,4.0
# From MPC 82721
P/2012 WA34 (Lemmon-PANSTARRS),e,6.1217,94.5077,352.7287,4.784540,0.0941768,0.33667266,181.8318,05/05.0/2018,2000,g 13.5,4.0
# From MPC108592
C/2012 X1 (LINEAR),e,44.3557,112.9847,132.2118,163.1389,0.0004730,0.99020714,0.0000,02/22.1628/2014,2000,g  4.8,3.6
# From MPC 88327
C/2012 X2 (PANSTARRS),e,34.1037,271.0652,215.7698,20.51985,0.0106033,0.76788937,19.7434,05/05.0/2018,2000,g  9.0,4.0
# From MPC 83521
C/2012 Y1 (LINEAR),e,20.9047,193.1458,269.1034,37.55846,0.0042820,0.94593063,8.2870,05/05.0/2018,2000,g 15.0,4.0
# From MPC 83521
C/2012 Y3 (McNaught),e,73.6002,122.7067,235.6423,27.82229,0.0067161,0.93633576,13.9787,05/05.0/2018,2000,g 11.0,4.0
# From MPC103843
C/2013 A1 (Siding Spring),e,129.0666,300.9664,2.4392,3357,0.0000051,0.99958225,0.0000,10/24.4892/2014,2000,g  8.2,2.4
# From MPC 84024
P/2013 A2 (Scotti),e,3.3640,355.8198,134.6713,4.008931,0.1227895,0.45467890,235.0200,05/05.0/2018,2000,g 15.5,4.0
# From MPC 82721
P/2013 AL76 (Catalina),e,144.8114,145.9462,27.2364,6.502800,0.0594365,0.68575524,116.9153,05/05.0/2018,2000,g 16.0,4.0
# From MPC 87915
C/2013 B2 (Catalina),h,06/30.3807/2013,43.4637,332.0087,156.5302,1.000765,3.745915,2000,11.0,4.0
# From MPC110080
